BUFENG 1A               
1 44310U 19032A   26068.91906837  .00016103  00000+0  62414-3 0  9992
2 44310  44.9758 238.6688 0005472  55.4463 304.6935 15.26012088372013
STARLINK-31882          
1 59855U 24097W   26068.53533116 -.00000307  00000+0 -16355-5 0  9999
2 59855  43.0030 268.2570 0000852 237.0873 122.9896 15.27575603101975
